{
  "type": "FeatureCollection",
  "features": [
    {
      "type": "Feature",
      "properties": {
        "id": "hazard_gujarat_squall",
        "name": "Saurashtra Coast Squally Wind & Wave Advisory",
        "hazard_type": "STRONG_WIND_WARNING",
        "severity": "MODERATE",
        "wave_height_predicted": "2.2 - 2.8 m",
        "wind_speed_predicted": "45 - 55 km/h gusting to 65 km/h",
        "description": "IMD Fishermen Warning: Squally weather with wind speeds reaching 45-55 kmph. Fishermen advised not to venture.",
        "issued_by": "India Meteorological Department (IMD) Fishermen Warning Services",
        "valid_until": "2026-09-06T18:00:00Z"
      },
      "geometry": {
        "type": "Polygon",
        "coordinates": [
          [
            [
              68.8,
              22.8
            ],
            [
              70.6,
              22.8
            ],
            [
              70.6,
              20.4
            ],
            [
              68.8,
              20.4
            ],
            [
              68.8,
              22.8
            ]
          ]
        ]
      }
    },
    {
      "type": "Feature",
      "properties": {
        "id": "hazard_ratnagiri_swell",
        "name": "Konkan & Goa High Swell Surge Warning Zone",
        "hazard_type": "HIGH_WAVE_WARNING",
        "severity": "HIGH",
        "wave_height_predicted": "2.8 - 3.4 m",
        "wind_speed_predicted": "30 - 40 km/h",
        "description": "INCOIS Swell Surge Alert: High energy waves with 14-second periods causing nearshore surging from Mumbai to Goa.",
        "issued_by": "INCOIS Ocean State Forecast & Coastal Disaster Warning",
        "valid_until": "2026-09-06T12:00:00Z"
      },
      "geometry": {
        "type": "Polygon",
        "coordinates": [
          [
            [
              72.6,
              19.1
            ],
            [
              73.5,
              19.1
            ],
            [
              73.8,
              15.2
            ],
            [
              72.8,
              15.2
            ],
            [
              72.6,
              19.1
            ]
          ]
        ]
      }
    },
    {
      "type": "Feature",
      "properties": {
        "id": "hazard_malabar_surge",
        "name": "Malabar Coast High Energy Wave Surge Advisory",
        "hazard_type": "ROUGH_SEA_WARNING",
        "severity": "MODERATE",
        "wave_height_predicted": "2.4 - 3.0 m",
        "wind_speed_predicted": "35 - 45 km/h",
        "description": "INCOIS Coastal Warning: Strong south-westerly swell with breakers along Mangalore, Calicut, and Kochi coasts.",
        "issued_by": "INCOIS Ocean State Forecast Centre",
        "valid_until": "2026-09-06T15:00:00Z"
      },
      "geometry": {
        "type": "Polygon",
        "coordinates": [
          [
            [
              74.6,
              13.2
            ],
            [
              75.2,
              13.2
            ],
            [
              76.5,
              8.8
            ],
            [
              75.8,
              8.8
            ],
            [
              74.6,
              13.2
            ]
          ]
        ]
      }
    },
    {
      "type": "Feature",
      "properties": {
        "id": "hazard_mannar_rough_sea",
        "name": "Gulf of Mannar & Palk Bay Rough Sea Squall Advisory",
        "hazard_type": "GUSTY_WIND_WARNING",
        "severity": "HIGH",
        "wave_height_predicted": "2.5 - 3.2 m",
        "wind_speed_predicted": "50 - 60 km/h",
        "description": "IMD & INCOIS Joint Warning: Funneling wind effect in Palk Strait creating steep choppy sea conditions.",
        "issued_by": "IMD Coastal Station Rameswaram / INCOIS",
        "valid_until": "2026-09-06T18:00:00Z"
      },
      "geometry": {
        "type": "Polygon",
        "coordinates": [
          [
            [
              78.4,
              9.8
            ],
            [
              79.9,
              9.8
            ],
            [
              79.5,
              8.2
            ],
            [
              77.9,
              8.2
            ],
            [
              78.4,
              9.8
            ]
          ]
        ]
      }
    },
    {
      "type": "Feature",
      "properties": {
        "id": "hazard_coromandel_lightning",
        "name": "Coromandel Coastal Convective Storm & Lightning Cluster",
        "hazard_type": "LIGHTNING_WARNING",
        "severity": "HIGH",
        "wave_height_predicted": "1.8 - 2.5 m",
        "wind_speed_predicted": "40 - 50 km/h in thunderstorms",
        "description": "IMD Severe Weather Advisory: Intense cloud-to-surface lightning strikes and sudden squalls near Chennai and Cuddalore.",
        "issued_by": "IMD Regional Meteorological Centre Chennai",
        "valid_until": "2026-09-05T22:00:00Z"
      },
      "geometry": {
        "type": "Polygon",
        "coordinates": [
          [
            [
              79.8,
              13.8
            ],
            [
              80.9,
              13.8
            ],
            [
              80.6,
              11.2
            ],
            [
              79.6,
              11.2
            ],
            [
              79.8,
              13.8
            ]
          ]
        ]
      }
    },
    {
      "type": "Feature",
      "properties": {
        "id": "hazard_andhra_depression_vigil",
        "name": "Northern Circars & Andhra Coast Depression Vigil",
        "hazard_type": "CYCLONIC_VIGIL",
        "severity": "MODERATE",
        "wave_height_predicted": "2.2 - 2.9 m",
        "wind_speed_predicted": "45 - 55 km/h",
        "description": "IMD Cyclone Warning: Low-pressure area developing in West-Central Bay of Bengal causing gusty winds off Vizag.",
        "issued_by": "IMD Cyclone Warning Centre Visakhapatnam",
        "valid_until": "2026-09-07T06:00:00Z"
      },
      "geometry": {
        "type": "Polygon",
        "coordinates": [
          [
            [
              82.2,
              18.2
            ],
            [
              84.5,
              18.2
            ],
            [
              83.8,
              15.8
            ],
            [
              81.5,
              15.8
            ],
            [
              82.2,
              18.2
            ]
          ]
        ]
      }
    },
    {
      "type": "Feature",
      "properties": {
        "id": "hazard_odisha_surge",
        "name": "Odisha & Bengal Coast High Swell & Wave Surge Alert",
        "hazard_type": "HIGH_WAVE_WARNING",
        "severity": "HIGH",
        "wave_height_predicted": "2.6 - 3.3 m",
        "wind_speed_predicted": "40 - 50 km/h",
        "description": "INCOIS Red Alert: Heavy surf and high astronomical tides along Paradip, Chandipur, and Digha coastline.",
        "issued_by": "INCOIS Ocean State Forecast & Odisha Disaster Management",
        "valid_until": "2026-09-06T18:00:00Z"
      },
      "geometry": {
        "type": "Polygon",
        "coordinates": [
          [
            [
              86.2,
              21.9
            ],
            [
              88.8,
              21.9
            ],
            [
              88.2,
              19.5
            ],
            [
              85.6,
              19.5
            ],
            [
              86.2,
              21.9
            ]
          ]
        ]
      }
    },
    {
      "type": "Feature",
      "properties": {
        "id": "hazard_andaman_squall",
        "name": "Andaman Sea Tropical Squall Corridor",
        "hazard_type": "TROPICAL_SQUALL",
        "severity": "MODERATE",
        "wave_height_predicted": "2.5 - 3.1 m",
        "wind_speed_predicted": "45 - 55 km/h",
        "description": "IMD Island Warning: Heavy rain bands and poor visibility across Ritchie Archipelago and Port Blair waters.",
        "issued_by": "IMD Port Blair Meteorological Centre",
        "valid_until": "2026-09-06T12:00:00Z"
      },
      "geometry": {
        "type": "Polygon",
        "coordinates": [
          [
            [
              92.2,
              13.0
            ],
            [
              93.6,
              13.0
            ],
            [
              93.6,
              10.5
            ],
            [
              92.2,
              10.5
            ],
            [
              92.2,
              13.0
            ]
          ]
        ]
      }
    }
  ]
}